category,name,name_ar,description,description_ar,address,zip,city,region,country_code,email,phone,web,lat,lon,Image folder Number(unique),Image 1,Image 2,Image 3
Education,Al Moattasem International School,,,,"Dhahran Jubail Expy, Al Jubail 35518, Saudi Arabia",,Jubail,Saudi,SA,info@almoattasemschool.com,966 59 965 0334,http://www.almoattasemschool.com,26.965283,49.5775037,1,1.jpg,2.jpg,3.jpg
Education,Mariya International Schools,,,,"Al Jubail 31951, Saudi Arabia",,Jubail,Saudi,SA,info@mariyaschools.com,966 13 344 5055,https://www.mariyaschools.com,26.9934312,49.5549678,2,1.jpg,2.jpg,3.jpg
Education,Dunes International School Al Jubail,,,,"6927, Al Jubail 35518 3407, Saudi Arabia",,Jubail,Saudi,SA,info@dunesschool.net,966 55 915 9581,http://www.dunesschooljubail.net,26.9670426,49.5775659,3,1.jpg,2.jpg,3.jpg
Professional Services,DROUP AL-JUBAIL UNDERTAKING EST.,,,,"Prince Mashhoor Road Prince Mashhoor Road, Jubail City Center, Al Jubail 35514 3545, Saudi Arabia",,Jubail,Saudi,SA,info@droups.com,966 13 361 1317,http://www.droups.com/,27.0133919,49.5780831,4,1.jpg,2.jpg,3.jpg
Professional Services,Darpetro Al Jubail,,,,"Al Jubail 35525, Saudi Arabia",,Jubail,Saudi,SA,info@darpetro.com,,http://darpetro.com/,26.9968301,49.5537025,5,1.jpg,2.jpg,3.jpg
Professional Services,International Construction & Manufacturing Services (ICMS),,,,"Al Jubail 35522, Saudi Arabia",,Jubail,Saudi,SA,info@icms.com.sa,966 13 344 8662,www.icms.com.sa,26.948919,49.5942189,6,1.jpg,2.jpg,3.jpg
Professional Services,Green World Group Training Center,,,,"Office # 613, Business Tower #101 King Abdul-Aziz Street, Jubail City, KSA? Jubail City, Saudi arabia Saudi Arabia",,Jubail,Saudi,SA,info.saudi@greenwgroup.com,966 50 574 4304,http://greenworldsaudi.com/,27.0390107,49.3350427,7,1.jpg,2.jpg,3.jpg
Professional Services,Kuwait Institute for Scientific Research (PRC) - Ahmadi,,,,"Ahmadi, Kuwait",,Kuwait City,Kuwait city,KW,webinfo@kisr.edu.kw,(965) 24816302,http://www.kisr.edu.kw/en/,29.0956848,48.0138942,8,1.jpg,2.jpg,3.jpg
Professional Services,Dasman Diabetes Institute,,,,"Jasim Mohamad Al Bahar St, Kuwait City",,Kuwait City,Kuwait city,KW,public.relations@dasmaninstitute.org,965 2224 2999,http://dasmaninstitute.org/,29.3896552,47.9234025,9,1.jpg,2.jpg,3.jpg
Professional Services,Health Care Clinic,,,,"Bneid Al Qar, Kuwait",,Kuwait City,Kuwait city,KW,hcc@hcc.com.kw,965 2251 1522,http://www.hcc.com.kw/,29.3744426,47.9338954,10,1.jpg,2.jpg,3.jpg
Professional Services,Alghanim Healthcare,,,,"Al Hamra Tower, Al-Shuhada St, Kuwait City, Kuwait",,Kuwait City,Kuwait city,KW,info@alghanimhc.com,965 2205 9000,http://www.alghanimhc.com/,29.3794298,47.9228514,11,1.jpg,2.jpg,3.jpg
Professional Services,Al Shaya Healthcare Co.,,,,"Fahad Al-Salem Street, Kuwait City, Kuwait",,Kuwait City,Kuwait city,KW,gm@alshayahc.com,965 2245 7378,http://alshayahc.com/,29.3673508,47.8976775,12,1.jpg,2.jpg,3.jpg
Professional Services,Amsterdam International Company,,,,"Al-Jawhara Tower, Khalid Ben Al-Waleed St., Floor 6, Kuwait",,Kuwait City,Kuwait city,KW,Amsterdam@aigtkw.com,965 2247 7040,http://www.aigtkw.com/,29.3747603,47.9183758,13,1.jpg,2.jpg,3.jpg
Professional Services,Quttainah Medical Center,,,,"Arabian Gulf St? Nafi Bin Al Azraq, Kuwait",,Kuwait City,Kuwait city,KW,info@qmc-kuwait.com,965 1888 883,http://qmc-kuwait.com/,29.3508594,47.9604805,14,1.jpg,2.jpg,3.jpg
Professional Services,Hwail Pharmacy,,,,"35 St, Kuwait City, Kuwait",,Kuwait City,Kuwait city,KW,info@alhuwail-pharm.com,965 2241 3905,http://alhuwailpharmacy.com/,29.3669709,47.8968665,15,1.jpg,2.jpg,3.jpg
Professional Services,Mashora Advocates and Legal Consultants,,,,"Mashoura Tower, 14A Hamad Al Saqer St, Kuwait City, Kuwait",,Kuwait City,Kuwait city,KW,mashora@mashora.com.kw,965 2240 6000,http://www.mashora.com.kw/,29.3635079,47.8913308,16,1.jpg,2.jpg,3.jpg
Professional Services,Arsan Advocates & Legal Consultants,,,,"Ahmad Al Jaber St, Kuwait City, Kuwait",,Kuwait City,Kuwait city,KW,info@arsanlaw.com,965 2246 9091,https://www.arsanlaw.com,29.382276,47.9161394,17,1.jpg,2.jpg,3.jpg
Professional Services,NEN Attorneys & legal Consultants,,,,"5-42 Fahad Al-Salem Street, Kuwait City, Kuwait",,Kuwait City,Kuwait city,KW,info@nen.com.kw,965 2240 7040,http://nen.com.kw/,29.3690776,47.9000624,18,1.jpg,2.jpg,3.jpg
Professional Services,Al-Dostour Law Firm,,,,Al-Shaab Gulf-Road Al-dana Plaza complex 3rd floor office? 304? Kuwait,,Kuwait City,Kuwait city,KW,info@al-dostour.com,965 2266 7374,https://www.al-dostour.com/,29.3552222,47.9569802,19,1.jpg,2.jpg,3.jpg
Professional Services,AL-TWAIJRI & PARTNERS LAW FIRM (TLF),,,,"Fahad Al-Salem Street, Kuwait City, Kuwait",,Kuwait City,Kuwait city,KW,twaijri@twaijri.com,965 2294 5666,http://www.twaijri.com,29.3689251,47.8986945,20,1.jpg,2.jpg,3.jpg
Professional Services,methqal,,,,"Kuwait City, Kuwait",,Kuwait City,Kuwait city,KW,Info@methqal.com,965 2244 7000,http://www.methqal.com/en/index.html,29.3676465,47.8974348,21,1.jpg,2.jpg,3.jpg
Professional Services,The Law Firm of Labeed Abdal,,,,"1st Flr, Hamad Commercial Centre, Ali Al Salem St, Mubarakiya, Beh Commercial Bk of Kuwait HQ, Mubarakiya 13152, Kuwait",,Kuwait City,Kuwait city,KW,info@lalaw.com.kw,965 2243 3707,http://www.lalaw.com.kw,29.3772297,47.9047868,22,1.jpg,2.jpg,3.jpg
Professional Services,Al Markaz Law Firm,,,,"Ahmad Al Jaber St, Kuwait City, Kuwait",,Kuwait City,Kuwait city,KW,info@markazlaw.com,965 2246 4640,http://www.markazlaw.com,29.3832856,47.9195741,23,1.jpg,2.jpg,3.jpg
Professional Services,"Adnan AlAjeel & Partners ""AlAjeel Partners""",,,,"Madeena Tower 1, 5th & 4th floor,, Fahad Al-Salem Street, Kuwait City, Kuwait",,Kuwait City,Kuwait city,KW,info@atbpartners.com,965 2245 1315,http://alajeellaw.com/,29.3686817,47.8996768,24,1.jpg,2.jpg,3.jpg
Professional Services,Al Adwani Law Firm,,,,"Injazzat Tower, 40 Khalid Ibn Al Waleed St, Kuwait City, Kuwait",,Kuwait City,Kuwait city,KW,info@aladwanilawfirm.com,965 2227 5475,http://www.aladwanilawfirm.com,29.3749966,47.9193679,25,1.jpg,2.jpg,3.jpg
Professional Services,AlYaqout Legal Group,,,,"Sharq, Jaber Al-Mubarak Street Mishal Tower 8 & 9 Floors? 15300, Kuwait",,Kuwait City,Kuwait city,KW,info@alyaqoutlg.com,965 2225 0210,http://www.alyaqoutlg.com,29.3826157,47.9201678,26,1.jpg,2.jpg,3.jpg
Professional Services,Moudhy H. Al-Mousa Law Firm,,,,"Mariam Complex, Building 38, 2nd Floor(R2), Office 103? Jasim Mohamad Al Bahar St, Kuwait City, Kuwait",,Kuwait City,Kuwait city,KW,,965 2241 2317,http://almousalawfirm.com/en/,29.3869058,47.9243619,27,1.jpg,2.jpg,3.jpg
Professional Services,Meshari Al Osaimi Law Office,,,,"35 Street, back of Rakan Tower,Fahad Al Salem St., Kuwait City, Kuwait City, Kuwait",,Kuwait City,Kuwait city,KW,info@alosaimilawfirm.com,965 2244 0112,http://www.alosaimilaw.com,29.3671228,47.8965905,28,1.jpg,2.jpg,3.jpg
Professional Services,Taher Group Law Firm,,,,"77 St, Bneid Al Qar, Kuwait",,Kuwait City,Kuwait city,KW,support@tahergrp.org,965 1803 020,http://www.tahergrp.org/index.php/en/,29.3748084,47.9288894,29,1.jpg,2.jpg,3.jpg
Professional Services,Lawyer Nasser Jawad Arbash,,,,"Fahad Al-Salem Street, Kuwait City, Kuwait",13059,Kuwait City,Kuwait city,KW,alarbash@alarbash.ws,965 2242 2702,http://www.alarbash.ws/,29.3674034,47.8978241,30,1.jpg,2.jpg,3.jpg
Professional Services,Mawatheeq Law Firm,,,,"Al-Sour Tower 12th Floor? Al-Soor Street, Kuwait City, Kuwait",,Kuwait City,Kuwait city,KW,info@mawatheeq.net,965 2291 5448,http://www.mawatheeq.net/,29.3611129,47.8970382,31,1.jpg,2.jpg,3.jpg
Travel & Tourism,Caesars Travel Group,,,,"Al - Nafisi Tower, Ground Floor,Opp. Science Museum, Abdullah Al-Mubarak Street,Mirqab, Kuwait, Kuwait City 28229, Kuwait",,Kuwait City,Kuwait city,KW,caesars@caesarstravel.com,965 2241 4340,http://www.caesarstravel.com/,29.3714285,47.9069892,32,1.jpg,2.jpg,3.jpg
Travel & Tourism,Travel Club,,,,"Fahad Al-Salem Street, Kuwait City, Kuwait",,Kuwait City,Kuwait city,KW,info@travelclub.com.kw,965 2225 8922,https://www.travelclub.com.kw,29.3673508,47.8976775,33,1.jpg,2.jpg,3.jpg
Travel & Tourism,Al Awali Travels,,,,"Office 1,2,3 Mezzanine Floor Al Salaam Towers, Fahad Al-Salem Street, Kuwait City, Kuwait? Fahad Al-Salem Street, Kuwait City, Kuwait",,Kuwait City,Kuwait city,KW,trip-engine@awali.com.kw,965 2228 2228,https://awali.com.kw/,29.3628591,47.8949662,34,1.jpg,2.jpg,3.jpg
Travel & Tourism,Alrashed International Travel Co.,,,,,"Fahad Al-Salem Street, Kuwait City, Kuwait",Kuwait City,Kuwait city,KW,info@alrashed.travel,965 2246 5360,https://www.alrashed.travel/,29.3688,47.9003534,35,1.jpg,2.jpg,3.jpg
Travel & Tourism,ITL World Travel -Kuwait,,,,"Abdulaziz Hamad Al Saqer St, Kuwait City, Kuwait",,Kuwait City,Kuwait city,KW,itltravels@itltravel.com,965 2295 8200,http://www.itltravel.com,29.3662802,47.8955992,36,1.jpg,2.jpg,3.jpg
Travel & Tourism,Al Qattan Travel Agency - Main Office,,,,,"Al Rabiah Building Darwaza Abdul Razzaq Mubarak Al kabeer Street, Kuwait",Kuwait City,Kuwait city,KW,info@qta.com.kw,965 2244 6688,http://www.qta.com.kw/,29.3743829,47.909368,37,1.jpg,2.jpg,3.jpg
Travel & Tourism,Mustashar Holidays Company,,,,"Madeena Tower No. 1, Mezzanine, Office No. 3 Fahad Alsalem St, Kuwait City, Kuwait",,Kuwait City,Kuwait city,KW,reservations@mustasharholidays.com,965 2226 0285,http://www.mustasharholidays.com,29.3686007,47.8997788,38,1.jpg,2.jpg,3.jpg
Arts & Entertainment,Apache Photography Company,,,,"24 St, Kuwait City, Kuwait",,Kuwait City,Kuwait city,KW,studio@apachephotos.com,965 2244 5508,http://www.apachephotos.com,29.3618352,47.8975022,39,1.jpg,2.jpg,3.jpg
Arts & Entertainment,YourAOK,,,,"Sharq, Mubarak Al Kabeer Street, Block 6, Tower 51, Floor 15, Kuwait City, Kuwait",,Kuwait City,Kuwait city,KW,info@youraok.net,965 2291 3265,https://www.youraok.net,29.3757986,47.94296,40,1.jpg,2.jpg,3.jpg
Arts & Entertainment,Alijaffarphoto,,,,"Khalid Ibn Al Waleed St, Kuwait City, Kuwait",,Kuwait City,Kuwait city,KW,ali@alijaffarphoto.com,965 9772 7733,http://www.alijaffarphoto.com,"29.3744624,",47.9195876,41,1.jpg,2.jpg,3.jpg
Arts & Entertainment,Lumen Store,,,,"Dar Al-Awadi Mall Ahmad Al-Jaber St, Kuwait",,Jubail,Kuwait city,KW,info@lumen-store.com,965 502 25512,http://www.lumen-store.com/,29.3819818,47.9169221,42,1.jpg,2.jpg,3.jpg
Arts & Entertainment,FOTO GULF Co. (STUDIO & COPY CENTER),,,,"Abdulla Al Mubarak St, Kuwait City 13034, Kuwait",,Kuwait City,Kuwait city,KW,info@fotogulfkuwait.com,965 9476 2312,http://www.fotogulfkuwait.com/,29.3707007,47.908353,43,1.jpg,2.jpg,3.jpg
Arts & Entertainment,Panorama Advertising & Marketing,,,,"Al-Soor Street, Kuwait",,Kuwait City,Kuwait city,KW,info@panoramakw.com,965 2240 8080,http://www.panoramakw.com,29.3608297,47.8947228,44,1.jpg,2.jpg,3.jpg
Arts & Entertainment,Mustafa EK Photography,,,,"AUB Head Office, Banking Complex Building, Mubarak Al Kabeer St, Kuwait City, Kuwait",,Kuwait City,Kuwait city,KW,contact@mustafaek.photography,965 508 22812,https://www.mustafaek.photography,29.3744631,47.9079142,45,1.jpg,2.jpg,3.jpg
Arts & Entertainment,Fantasy World Toys Souq Sharq,,,,"Arabian Gulf St, Kuwait City, Kuwait",,Kuwait City,Kuwait city,KW,info@fantasyworldtoys.com,965 9965 4614,https://fantasyworldtoys.com/,29.3895647,47.9108778,46,1.jpg,2.jpg,3.jpg
Professional services,Jones Day,,,,"Hugayet Tower, 5374 King Fahd Road, Al Hizam Al Akhdar, Al Khobar 34433, Saudi Arabia",,Al Khobar,Saudi,SA,jchaudhri@jonesday.com,966 13 849 6606,http://www.jonesday.com/saudiarabia/,26.308559,50.1398717,47,1.jpg,2.jpg,3.jpg
Professional services,AL HARBI & Associates - Attorneys and Legal Consultants,,,,"Prince Turkey Street, Corniche, Al Khobar 34413, Saudi Arabia",,Al Khobar,Saudi,SA,mhajj@alharbilaw.com,966 13 882 0771,http://www.alharbilaw.com,26.3035322,50.1538071,48,1.jpg,2.jpg,3.jpg
Professional services,Dr. Hamza Al Fa'ar Attorney Office,,,,"Al Khobar Al Shamalia, Al Khobar 34426 2875, Saudi Arabia",,Al Khobar,Saudi,SA,info@dralfier.com,966 50 590 5587,http://www.dralfier.com,26.3019973,50.1407555,49,1.jpg,2.jpg,3.jpg
Professional services,Al Suwaiket & Al Busaies Law firm,,,,"Prince Faisal Bin Fahd Road Prince Faisal Bin Fahd Road, Al Bandariyah, Al Khobar 34424 8628, Saudi Arabia",,Al Khobar,Saudi,SA,sb@sb-lawyersweb.com,966 13 887 7512,http://www.sb-lawyersweb.com,26.3027053,50.1409335,50,1.jpg,2.jpg,3.jpg
Professional services,Khudairy Company Hazza Lawyers,,,,"13 (A) St, Ar Rayyan, Dammam 32256, Saudi Arabia",,Dammam,Saudi,SA,Info@Kh-legal.com.sa,966 13 805 0775,http://www.kh-legal.com.sa,26.4108085,50.021358,51,1.jpg,2.jpg,3.jpg
Professional services,Lawyer Mohammed Muslim Office,,,,"King Fahd Road, Madinat Al Umal, Dammam 32253, Saudi Arabia",,Dammam,Saudi,SA,info@mysite.com,966 50 199 4442,https://www.law-m.com/home,26.4250539,50.0445919,52,1.jpg,2.jpg,3.jpg
Professional services,Ahmed Abdullah Al-Towyjry,,,,"Prince Mohammed Bin Fahd Road, Ar Rabi, Dammam 32241, Saudi Arabia",,Dammam,Saudi,SA,info@altowyjry.com,966 13 831 2255,http://altowyjry.com/en/,26.4399953,50.0478358,53,1.jpg,2.jpg,3.jpg
Professional services,Law Office of Saad A. Alabdulwahed,,,,"King Fahad Road (Dammam - Khobar Highway), Dammam Saudi Arabia",,Dammam,Saudi,SA,saad@attorney.sa,966 56 677 2828,http://www.attorney.sa/index.html,26.4112646,50.0641522,54,1.jpg,2.jpg,3.jpg
Professional services,Abdul Hamid Al Mubarak Law Firm Office,,,,"Al Adamah, Dammam 32242, Saudi Arabia",,Dammam,Saudi,SA,balmubarak@almubaraklawyer.com,966 13 827 1030,http://almubaraklawyer.com/en/,26.4355159,50.036544,55,1.jpg,2.jpg,3.jpg
Professional services,Lawyer Saeed Abdulaziz Algheryafi for Law Firm,,,,"Khaleej Rd, Al Ghadir, Saihat 32451, Saudi Arabia",,Saihat,Saudi,SA,info@algheryafilaw.com,966 13 802 1726,algheryafilaw.com,26.4881192,49.9791189,56,1.jpg,2.jpg,3.jpg
Professional services,AlRasheed & AlMusained Low Firm,,,,"Ar Rayyan, Dammam 32256, Saudi Arabia",,Dammam,Saudi,SA,mohammed@rmlfco.com,966 13 841 1961,http://www.rmlfco.com/ar/index.php#,26.4116999,50.0268557,57,1.jpg,2.jpg,3.jpg
Professional services,Lawyer Hamad Al-Qahtani Office,,,,"King Fahd Road,  Dammam Saudi Arabia",,Dammam,Saudi,SA,office@lawhamad.com,966 9200 09620,http://www.lawhamad.com/,26.4180937,50.014056,58,1.jpg,2.jpg,3.jpg
Professional services,Lawyer Mohammed Saeed al-Jishi Office,,,,"Salman Alfarisi St, Al Mahar, Anak 32455, Saudi Arabia",,,Saudi,SA,mohammed@aljishilawyer.com,966 13 804 0994,http://aljishilawyer.com/,26.531336,49.9589782,59,1.jpg,2.jpg,3.jpg
Professional services,Adel Yousef Alatallah Law Firm,,,,"Business Commercial Center? Office No. 201, Prince Saad St, Ibn Khaldun? Ibn Khaldun, Dammam 32253, Saudi Arabia",,Dammam,Saudi,SA,INFO@AL-ATALLAH.COM,966 13 806 0408,https://www.al-atallah.com/,26.4197494,50.020735,60,1.jpg,2.jpg,3.jpg
Professional services,Hussein bin Mishari AlShehri Law Firm,,,,"King Fahd Road, Al Badiyah, Dammam 32243, Saudi Arabia",,Dammam,Saudi,SA,info@hslaw.com.sa,966 13 841 2955,http://www.hslaw.com.sa/en/,26.4247929,50.0262727,61,1.jpg,2.jpg,3.jpg
Professional services,The Law Firm of Salah Al Hejailan,,,,"Prince Faisal Bin Fahd Road, Doha Al Janubiyah, loft No 6, Al Turki Business Park? Dhahran 31952, Saudi Arabia",,Dhahran,Saudi,SA,Lfshalkhobar@hejailanlaw.com,966 13 868 7266,http://www.hejailanlaw.com/,26.3091493,50.1053906,62,1.jpg,2.jpg,3.jpg
Professional services,Ministry of Justice,,,,"Prince Mohammed Bin Fahd Road, Ash Shati Al Gharbi, Dammam 32413, Saudi Arabia",,Dammam,Saudi,SA,info@moj.gov.sa,966 13 827 0444,https://www.moj.gov.sa,26.4666398,50.0523781,63,1.jpg,2.jpg,3.jpg
Professional services,Law office of Fahad Alanazi,,,,"Dammam 32273, Saudi Arabia",,Dammam,Saudi,SA,info@lawyerfahad.com,966 55 777 7978,http://www.lawyerfahad.com/,26.3808924,49.9866026,64,1.jpg,2.jpg,3.jpg
Professional services,Jubail Water and Power Company,,,,"Jubail Industrial City ,Al Jubail 35716 31961, Saudi Arabia",,Jubail,Saudi,SA,,966 13 358 1358,http://www.jwap.com.sa/en/,27.06683,49.5355345,65,1.jpg,2.jpg,3.jpg
Professional services,Boubyan Takaful Insurance Company,,,,"80, Kuwait City 13151, Kuwait",,Kuwait City,Saudi,KW,info@boubyantakaful.com,965 1825 582,https://www.boubyantakaful.com,29.3628965,47.8939724,66,1.jpg,2.jpg,3.jpg
Professional services,Al Ahleia Insurance Co. S.A.K.P,,,,"Ahmad Al Jaber St, Kuwait City, Kuwait",,Kuwait City,Saudi,KW,aic@alahleia.com,965 1888 444,http://www.alahleia.com,29.3824106,47.9164178,67,1.jpg,2.jpg,3.jpg
Professional services,Ritaj Takaful Insurance Company,,,,"Kuwait City, Kuwait",,Kuwait City,Saudi,KW,info@ritajins.com,965 1830 033,http://www.ritajins.com,29.3770306,47.9094206,68,1.jpg,2.jpg,3.jpg
Professional services,Safenet Insurance Brokerage Company,,,,"Ahmad Al Jaber St, Kuwait City, Kuwait",,Kuwait City,Saudi,KW,info@safenetadvisor.com,965 2228 6280,https://safenetadvisor.com,29.3802576,47.912528,69,1.jpg,2.jpg,3.jpg
Professional services,Dar Al Salam Takaful Insurance Company,,,,"Ahmad Al Jaber St, Kuwait City, Kuwait",,Kuwait City,Saudi,KW,info@daralsalamtic.com,965 2245 4870,http://www.daralsalamtic.com,29.3781414,47.9092678,70,1.jpg,2.jpg,3.jpg
Professional services,First Takaful,,,,"Abdulla Al Mubarak St, Kuwait City, Kuwait",,Kuwait City,Saudi,KW,,965 1880 055,http://www.firsttakaful.com.kw/,29.3723226,47.9082284,71,1.jpg,2.jpg,3.jpg
Professional services,Aman Takaful Insurance Co.,,,,"Ahmad Al Jaber St, Kuwait City, Kuwait",,Kuwait City,Saudi,KW,info@amantakaful.com,965 2231 0000,https://www.amantakaful.com,29.3828243,47.9171149,72,1.jpg,2.jpg,3.jpg
Professional services,Protection Insurance,,,,"Abdulla Al Mubarak St, Kuwait City, Kuwait",,Kuwait City,Saudi,KW,info@pis.bh,965 9787 8660,http://www.pis.bh,29.3678178,47.9110031,73,1.jpg,2.jpg,3.jpg
Professional services,AAA Warranty Services,,,,"Kuwait City, Kuwait",,Kuwait City,Saudi,KW,info@aaa-warranty.com,965 1808 040,http://www.aaa-warranty.com,29.3842689,47.9213663,74,1.jpg,2.jpg,3.jpg
Professional services,Ilaf Takaful,,,,"35 St, Kuwait City, Kuwait",,Kuwait City,Saudi,KW,info@ilaftakaful.com,965 2224 5622,https://www.ilaftakaful.com/,29.3667314,47.8957494,75,1.jpg,2.jpg,3.jpg
Professional services,Warba Insurance Company Head Office,,,,"Warba Tower - Ahmad Al Jaber Street? Kuwait City 13103, Kuwait",,Kuwait City,Saudi,KW,info@warbaonline.com,965 1808 181,https://warba.insure/,29.3763256,47.907293,76,1.jpg,2.jpg,3.jpg
Professional services,AXA Cooperative Al Khobar Main Branch,,,,"7th St, Madinat Al Umal, Al Maflah Building, Al Khobar Saudi Arabia",,Al Khobar,Saudi,SA,info.jeddah@axa-gulf.com,966 13 895 1250,https://www.axa-cooperative.com/en/,26.2882086,50.1359668,77,1.jpg,2.jpg,3.jpg
Professional services,AL Ethad Health Insurance (Back OF Al Khobar jawajat),,,,"Al Khobar Al Janubiyah, Al Khobar 34611, Saudi Arabia",,Al Khobar,Saudi,SA,info@tui-sa.com,966 9200 06262,http://www.tuci-sa.com,26.2783974,50.1442524,78,1.jpg,2.jpg,3.jpg
Professional services,Al Alamiya Insurance Company,,,,"Abu Alkatheer Alwasety St, Al Ulaya, Al Khobar 34446, Saudi Arabia",,Al Khobar,Saudi,SA,alamiya.insurance@sa.rsagroup.com,966 13 898 5570,http://www.alamiyainsurance.com.sa,26.2932837,50.1159303,79,1.jpg,2.jpg,3.jpg
Professional services,Wataniya Insurance Company,,,,"King Faisal Rd, Al Bandariyah, Al Khobar 34423, Saudi Arabia",,Al Khobar,Saudi,SA,info@wataniya.com.sa,966 11 477 8613,http://www.wataniya.com.sa,26.312355,50.1463947,80,1.jpg,2.jpg,3.jpg
Professional services,TRUST Brokers Co.,,,,"3 B St, Bandariyah, Al Khobar 34424, Saudi Arabia",31952,Al Khobar,Saudi,SA,info@trust-ksa.com,966 13 887 2662,http://www.trust-ksa.com/,26.3038596,50.141927,81,1.jpg,2.jpg,3.jpg
Professional services,Chubb Arabia Cooperative Insurance Company,,,,"7th Floor, Khobar Business Gate (Southern Tower)? King Faisal Bin Abdulaziz Road? Al Khobar 34423, Saudi Arabia",,Al Khobar,Saudi,SA,jacksonvillebreakingnews.com,966 800 116 0038,https://www2.chubb.com/sa-en/,26.3122911,50.1465562,82,1.jpg,2.jpg,3.jpg
Professional services,Saudi Brokers Company Limited,,,,"23 B Street, Al Aqrabiyah, Al Khobar 34445, Saudi Arabia",31992,Al Khobar,Saudi,SA,info@saudibrokers.com.sa,966 9200 06353,http://saudibrokers.com.sa,26.3003624,50.1227445,83,1.jpg,2.jpg,3.jpg
Professional services,Najm for Insurance Services,,,,"Dana Al Shamaliah, Dhahran 34258, Saudi Arabia",,Dhahran,Saudi,SA,,966 9200 00460,https://www.najm.sa,26.3444851,50.0750179,84,1.jpg,2.jpg,3.jpg
Professional services,COMPASS ARABIA CO.,,,,"5374 King Fahd Road, Al Hizam Al Akhdar, Al Khobar 34433, Saudi Arabia",,Al Khobar,Saudi,SA,info@compassarabia.com,966 13 865 5581,http://www.compassarabia.com,26.2956793,50.1377561,85,1.jpg,2.jpg,3.jpg
Professional services,ACIG,,,,"Thuqbah, Al Khobar 34623, Saudi Arabia",,Al Khobar,Saudi,SA,customercare@acig.com.sa,966 9200 12331,https://acig.com.sa/en,26.2815717,50.1231603,86,1.jpg,2.jpg,3.jpg
Food & Drinks,Sultanchef - Turkish Steakhouse,,,,"AlTijariya Tower, Kuwait City, Kuwait | Al Tijariya Tower, Kuwait City",,Kuwait City,Kuwait city,KW,info@sultanchef.com,965 24613090,http://sultanchef.com,29.3700121,47.9226922,87,1.jpg,2.jpg,3.jpg
Food & Drinks,Azumami,,,,Dar Al-Awadi Tower Ahmed Al Jaber Street B1 level Sharq,,Sharq,Kuwait city,KW,info@azumami.com,223 223 35,https://azumami.com/,29.381881,47.9168141,88,1.jpg,2.jpg,3.jpg
Food & Drinks,Rock House Sliders,,,,"11 Jaber Al Mubarak | Block 5, Shop #1, Kuwait City",,Kuwait City,Kuwait city,KW,info@rockhousesliders.com,965 1800 747,https://www.rockhousesliders.com/,29.3812677,47.9200808,89,1.jpg,2.jpg,3.jpg
Food & Drinks,Street by AlMakan,,,,"40-41 Mubarak Al Kabeer Street, Kuwait City",,Kuwait City,Kuwait city,KW,info@almakankw.com,965 22410211,http://www.almakan-kw.com,29.3741633,47.9097089,90,1.jpg,2.jpg,3.jpg
